0 FENGYUN 1C DEB
1 30060U 99025PM  13281.42344054  .00000998  00000-0  14115-2 0  6981
2 30060 099.3061 083.6260 0372114 246.5864 169.1382 13.34172174327631
0 FENGYUN 1C DEB
1 30060U 99025PM  13282.70009383  .00000990  00000-0  14011-2 0  6994
2 30060 099.3062 084.7900 0372164 243.4654 180.9254 13.34177108327803
0 FENGYUN 1C DEB
1 30060U 99025PM  13285.94374843  .00001154  00000-0  16222-2 0  7012
2 30060 099.3064 087.7473 0372250 235.5369 280.3315 13.34185472328238
0 FENGYUN 1C DEB
1 30060U 99025PM  13287.42294921  .00001311  00000-0  18357-2 0  7022
2 30060 099.3066 089.0961 0372280 231.9241 185.0280 13.34189446328438
0 FENGYUN 1C DEB
1 30060U 99025PM  13288.69970148  .00001509  00000-0  21032-2 0  7038
2 30060 099.3069 090.2601 0372286 228.7964 197.3793 13.34193909328601
0 FENGYUN 1C DEB
1 30060U 99025PM  13290.41682681  .00001547  00000-0  21543-2 0  7043
2 30060 099.3072 091.8259 0372300 224.6064 164.8970 13.34200794328836
0 FENGYUN 1C DEB
1 30060U 99025PM  13291.69936468  .00001661  00000-0  23089-2 0  7054
2 30060 099.3076 092.9952 0372308 221.4756 205.0786 13.34204750329002
0 FENGYUN 1C DEB
1 30060U 99025PM  13292.91830659  .00001860  00000-0  25787-2 0  7064
2 30060 099.3077 094.1066 0372300 218.4975 299.8213 13.34208716329163
0 FENGYUN 1C DEB
1 30060U 99025PM  13293.96285176  .00001896  00000-0  26269-2 0  7074
2 30060 099.3077 095.0590 0372280 215.9558 276.9162 13.34213778329300
0 FENGYUN 1C DEB
1 30060U 99025PM  13295.01114338  .00002038  00000-0  28192-2 0  7080
2 30060 099.3078 096.0148 0372278 213.3956 272.0320 13.34217359329449
